{"type": "FeatureCollection", "features": [ {"type": "Feature", "properties": {"norad_id": 33492, "name": "GOSAT (IBUKI)", "group": "resource", "lat": -48.48411623669477, "lon": -90.2257995991942, "alt_km": 676.3020831226659, "timestamp": "2025-12-16T10:53:45.119532+00:00", "meta": {"OBJECT_NAME": "GOSAT (IBUKI)", "OBJECT_ID": "2009-002A", "EPOCH": "2025-12-15T20:45:51.511392", "MEAN_MOTION": 14.67532099, "ECCENTRICITY": 9.521e-05, "INCLINATION": 98.0768, "RA_OF_ASC_NODE": 98.4247, "ARG_OF_PERICENTER": 93.5308, "MEAN_ANOMALY": 266.6005, "EPHEMERIS_TYPE": 0, "CLASSIFICATION_TYPE": "U", "NORAD_CAT_ID": 33492, "ELEMENT_SET_NO": 999, "REV_AT_EPOCH": 90457, "BSTAR": 0.00015600967, "MEAN_MOTION_DOT": 8.37e-06, "MEAN_MOTION_DDOT": 0}, "tle": {"line1": "1 33492U 09002A   25349.86517953  .00000837  00000+0  15601-3 0  9992", "line2": "2 33492  98.0768  98.4247 0000952  93.5308 266.6005 14.67532099904575"}}, "geometry": {"type": "Point", "coordinates": [-90.2257995991942, -48.48411623669477]}}, {"type": "Feature", "properties": {"norad_id": 35681, "name": "DEIMOS-1", "group": "resource", "lat": 45.01246617568947, "lon": 143.0897882612864, "alt_km": 639.7493051232286, "timestamp": "2025-12-16T10:53:45.119543+00:00", "meta": {"OBJECT_NAME": "DEIMOS-1", "OBJECT_ID": "2009-041A", "EPOCH": "2025-12-15T23:17:35.162304", "MEAN_MOTION": 14.74960608, "ECCENTRICITY": 0.00026843, "INCLINATION": 97.7144, "RA_OF_ASC_NODE": 150.423, "ARG_OF_PERICENTER": 73.7443, "MEAN_ANOMALY": 286.4062, "EPHEMERIS_TYPE": 0, "CLASSIFICATION_TYPE": "U", "NORAD_CAT_ID": 35681, "ELEMENT_SET_NO": 999, "REV_AT_EPOCH": 87987, "BSTAR": 0.00017741766, "MEAN_MOTION_DOT": 1.145e-05, "MEAN_MOTION_DDOT": 0}, "tle": {"line1": "1 35681U 09041A   25349.97054586  .00001145  00000+0  17742-3 0  9998", "line2": "2 35681  97.7144 150.4230 0002684  73.7443 286.4062 14.74960608879872"}}, "geometry": {"type": "Point", "coordinates": [143.0897882612864, 45.01246617568947]}}, {"type": "Feature", "properties": {"norad_id": 35682, "name": "DUBAISAT-1", "group": "resource", "lat": -23.859307106969382, "lon": 124.63560297089042, "alt_km": 646.4343893170462, "timestamp": "2025-12-16T10:53:45.119554+00:00", "meta": {"OBJECT_NAME": "DUBAISAT-1", "OBJECT_ID": "2009-041B", "EPOCH": "2025-12-15T21:58:35.673024", "MEAN_MOTION": 14.74612807, "ECCENTRICITY": 0.00094263, "INCLINATION": 97.9792, "RA_OF_ASC_NODE": 120.5486, "ARG_OF_PERICENTER": 303.3623, "MEAN_ANOMALY": 56.6683, "EPHEMERIS_TYPE": 0, "CLASSIFICATION_TYPE": "U", "NORAD_CAT_ID": 35682, "ELEMENT_SET_NO": 999, "REV_AT_EPOCH": 87808, "BSTAR": 0.00019651339, "MEAN_MOTION_DOT": 1.26e-05, "MEAN_MOTION_DDOT": 0}, "tle": {"line1": "1 35682U 09041B   25349.91569066  .00001260  00000+0  19651-3 0  9996", "line2": "2 35682  97.9792 120.5486 0009426 303.3623  56.6683 14.74612807878081"}}, "geometry": {"type": "Point", "coordinates": [124.63560297089042, -23.859307106969382]}}, {"type": "Feature", "properties": {"norad_id": 35931, "name": "OCEANSAT-2", "group": "resource", "lat": -51.53514378380577, "lon": 160.19182618707484, "alt_km": 913.2251030840625, "timestamp": "2025-12-16T10:53:45.119565+00:00", "meta": {"OBJECT_NAME": "OCEANSAT-2", "OBJECT_ID": "2009-051A", "EPOCH": "2025-12-15T23:29:44.666880", "MEAN_MOTION": 13.99623944, "ECCENTRICITY": 0.00161274, "INCLINATION": 98.222, "RA_OF_ASC_NODE": 350.2511, "ARG_OF_PERICENTER": 36.5739, "MEAN_ANOMALY": 323.6526, "EPHEMERIS_TYPE": 0, "CLASSIFICATION_TYPE": "U", "NORAD_CAT_ID": 35931, "ELEMENT_SET_NO": 999, "REV_AT_EPOCH": 85370, "BSTAR": -7.7641235e-05, "MEAN_MOTION_DOT": -1.51e-06, "MEAN_MOTION_DDOT": 0}, "tle": {"line1": "1 35931U 09051A   25349.97898920 -.00000151  00000+0 -77641-4 0  9998", "line2": "2 35931  98.2220 350.2511 0016127  36.5739 323.6526 13.99623944853703"}}, "geometry": {"type": "Point", "coordinates": [160.19182618707484, -51.53514378380577]}}, {"type": "Feature", "properties": {"norad_id": 35946, "name": "WORLDVIEW-2 (WV-2)", "group": "resource", "lat": 36.9894262240238, "lon": -112.06110156924035, "alt_km": 762.7939143185258, "timestamp": "2025-12-16T10:53:45.119576+00:00", "meta": {"OBJECT_NAME": "WORLDVIEW-2 (WV-2)", "OBJECT_ID": "2009-055A", "EPOCH": "2025-12-15T22:32:39.026976", "MEAN_MOTION": 14.37725313, "ECCENTRICITY": 0.00050872, "INCLINATION": 98.4787, "RA_OF_ASC_NODE": 60.9798, "ARG_OF_PERICENTER": 62.8181, "MEAN_ANOMALY": 297.3524, "EPHEMERIS_TYPE": 0, "CLASSIFICATION_TYPE": "U", "NORAD_CAT_ID": 35946, "ELEMENT_SET_NO": 999, "REV_AT_EPOCH": 84931, "BSTAR": 6.799734e-05, "MEAN_MOTION_DOT": 1.61e-06, "MEAN_MOTION_DDOT": 0}, "tle": {"line1": "1 35946U 09055A   25349.93934059  .00000161  00000+0  67997-4 0  9990", "line2": "2 35946  98.4787  60.9798 0005087  62.8181 297.3524 14.37725313849310"}}, "geometry": {"type": "Point", "coordinates": [-112.06110156924035, 36.9894262240238]}}, {"type": "Feature", "properties": {"norad_id": 36036, "name": "SMOS", "group": "resource", "lat": -24.62455819910516, "lon": -8.454238656018395, "alt_km": 765.3032734826738, "timestamp": "2025-12-16T10:53:45.119586+00:00", "meta": {"OBJECT_NAME": "SMOS", "OBJECT_ID": "2009-059A", "EPOCH": "2025-12-15T18:56:10.705056", "MEAN_MOTION": 14.39743719, "ECCENTRICITY": 0.00010987, "INCLINATION": 98.4381, "RA_OF_ASC_NODE": 174.7923, "ARG_OF_PERICENTER": 83.8276, "MEAN_ANOMALY": 276.3038, "EPHEMERIS_TYPE": 0, "CLASSIFICATION_TYPE": "U", "NORAD_CAT_ID": 36036, "ELEMENT_SET_NO": 999, "REV_AT_EPOCH": 84706, "BSTAR": 0.00012839455, "MEAN_MOTION_DOT": 3.59e-06, "MEAN_MOTION_DDOT": 0}, "tle": {"line1": "1 36036U 09059A   25349.78901279  .00000359  00000+0  12839-3 0  9999", "line2": "2 36036  98.4381 174.7923 0001098  83.8276 276.3038 14.39743719847060"}}, "geometry": {"type": "Point", "coordinates": [-8.454238656018395, -24.62455819910516]}}, {"type": "Feature", "properties": {"norad_id": 36110, "name": "YAOGAN-7", "group": "resource", "lat": 3.1927859069900055, "lon": 52.64870457542796, "alt_km": 639.6130119159734, "timestamp": "2025-12-16T10:53:45.119597+00:00", "meta": {"OBJECT_NAME": "YAOGAN-7", "OBJECT_ID": "2009-069A", "EPOCH": "2025-12-15T22:43:15.356064", "MEAN_MOTION": 14.77737056, "ECCENTRICITY": 0.00233286, "INCLINATION": 98.0298, "RA_OF_ASC_NODE": 231.6922, "ARG_OF_PERICENTER": 270.351, "MEAN_ANOMALY": 89.5027, "EPHEMERIS_TYPE": 0, "CLASSIFICATION_TYPE": "U", "NORAD_CAT_ID": 36110, "ELEMENT_SET_NO": 999, "REV_AT_EPOCH": 86256, "BSTAR": 9.093942e-05, "MEAN_MOTION_DOT": 6.01e-06, "MEAN_MOTION_DDOT": 0}, "tle": {"line1": "1 36110U 09069A   25349.94670551  .00000601  00000+0  90939-4 0  9995", "line2": "2 36110  98.0298 231.6922 0023328 270.3510  89.5027 14.77737056862565"}}, "geometry": {"type": "Point", "coordinates": [52.64870457542796, 3.1927859069900055]}}, {"type": "Feature", "properties": {"norad_id": 36605, "name": "TANDEM-X", "group": "resource", "lat": -73.67342293787034, "lon": 149.26777658837906, "alt_km": 517.0690808435575, "timestamp": "2025-12-16T10:53:45.119608+00:00", "meta": {"OBJECT_NAME": "TANDEM-X", "OBJECT_ID": "2010-030A", "EPOCH": "2025-12-15T11:38:35.554272", "MEAN_MOTION": 15.19144958, "ECCENTRICITY": 0.000193, "INCLINATION": 97.4447, "RA_OF_ASC_NODE": 354.8261, "ARG_OF_PERICENTER": 84.3748, "MEAN_ANOMALY": 275.7707, "EPHEMERIS_TYPE": 0, "CLASSIFICATION_TYPE": "U", "NORAD_CAT_ID": 36605, "ELEMENT_SET_NO": 999, "REV_AT_EPOCH": 85875, "BSTAR": 7.0899698e-05, "MEAN_MOTION_DOT": 1.422e-05, "MEAN_MOTION_DDOT": 0}, "tle": {"line1": "1 36605U 10030A   25349.48513373  .00001422  00000+0  70900-4 0  9999", "line2": "2 36605  97.4447 354.8261 0001930  84.3748 275.7707 15.19144958858758"}}, "geometry": {"type": "Point", "coordinates": [149.26777658837906, -73.67342293787034]}}, {"type": "Feature", "properties": {"norad_id": 36795, "name": "CARTOSAT-2B", "group": "resource", "lat": 61.331510773333264, "lon": -126.14519052415602, "alt_km": 621.7989283410179, "timestamp": "2025-12-16T10:53:45.119618+00:00", "meta": {"OBJECT_NAME": "CARTOSAT-2B", "OBJECT_ID": "2010-035A", "EPOCH": "2025-12-15T22:59:56.035680", "MEAN_MOTION": 14.78729293, "ECCENTRICITY": 0.00129866, "INCLINATION": 97.7855, "RA_OF_ASC_NODE": 38.8842, "ARG_OF_PERICENTER": 66.9757, "MEAN_ANOMALY": 293.2822, "EPHEMERIS_TYPE": 0, "CLASSIFICATION_TYPE": "U", "NORAD_CAT_ID": 36795, "ELEMENT_SET_NO": 999, "REV_AT_EPOCH": 83277, "BSTAR": 9.7993335e-05, "MEAN_MOTION_DOT": 6.7e-06, "MEAN_MOTION_DDOT": 0}, "tle": {"line1": "1 36795U 10035A   25349.95828745  .00000670  00000+0  97993-4 0  9993", "line2": "2 36795  97.7855  38.8842 0012986  66.9757 293.2822 14.78729293832779"}}, "geometry": {"type": "Point", "coordinates": [-126.14519052415602, 61.331510773333264]}}, {"type": "Feature", "properties": {"norad_id": 36834, "name": "YAOGAN-10", "group": "resource", "lat": -79.87902830623175, "lon": 61.44503239261756, "alt_km": 623.0121915207055, "timestamp": "2025-12-16T10:53:45.119644+00:00", "meta": {"OBJECT_NAME": "YAOGAN-10", "OBJECT_ID": "2010-038A", "EPOCH": "2025-12-16T00:19:24.238272", "MEAN_MOTION": 14.84619881, "ECCENTRICITY": 0.00013151, "INCLINATION": 97.9144, "RA_OF_ASC_NODE": 9.8098, "ARG_OF_PERICENTER": 82.6289, "MEAN_ANOMALY": 0.7358, "EPHEMERIS_TYPE": 0, "CLASSIFICATION_TYPE": "U", "NORAD_CAT_ID": 36834, "ELEMENT_SET_NO": 999, "REV_AT_EPOCH": 83002, "BSTAR": 0.00016742162, "MEAN_MOTION_DOT": 1.361e-05, "MEAN_MOTION_DDOT": 0}, "tle": {"line1": "1 36834U 10038A   25350.01347498  .00001361  00000+0  16742-3 0  9990", "line2": "2 36834  97.9144   9.8098 0001315  82.6289   0.7358 14.84619881830025"}}, "geometry": {"type": "Point", "coordinates": [61.44503239261756, -79.87902830623175]}}]}